{"type": "FeatureCollection", "features": [ {"type": "Feature", "properties": {"norad_id": 36402, "name": "COSMOS 2460 (732)", "group": "gnss", "lat": 64.71392456387365, "lon": 35.51655799976932, "alt_km": 19129.581875190248, "timestamp": "2025-12-06T09:34:17.156124+00:00", "meta": {"OBJECT_NAME": "COSMOS 2460 (732)", "OBJECT_ID": "2010-007C", "EPOCH": "2025-12-05T09:49:39.891072", "MEAN_MOTION": 2.13106027, "ECCENTRICITY": 0.00027397, "INCLINATION": 65.5337, "RA_OF_ASC_NODE": 321.021, "ARG_OF_PERICENTER": 272.5603, "MEAN_ANOMALY": 131.8824, "EPHEMERIS_TYPE": 0, "CLASSIFICATION_TYPE": "U", "NORAD_CAT_ID": 36402, "ELEMENT_SET_NO": 999, "REV_AT_EPOCH": 12260, "BSTAR": 0, "MEAN_MOTION_DOT": -4.8e-07, "MEAN_MOTION_DDOT": 0}, "tle": {"line1": "1 36402U 10007C   25339.40948948 -.00000048  00000+0  00000+0 0  9992", "line2": "2 36402  65.5337 321.0210 0002739 272.5603 131.8824  2.13106027122601"}}, "geometry": {"type": "Point", "coordinates": [35.51655799976932, 64.71392456387365]}}, {"type": "Feature", "properties": {"norad_id": 36585, "name": "GPS BIIF-1  (PRN 25)", "group": "gnss", "lat": -51.794847889628954, "lon": 150.4294800610876, "alt_km": 20444.46626529416, "timestamp": "2025-12-06T09:34:17.156136+00:00", "meta": {"OBJECT_NAME": "GPS BIIF-1  (PRN 25)", "OBJECT_ID": "2010-022A", "EPOCH": "2025-12-05T06:08:38.756832", "MEAN_MOTION": 2.00552724, "ECCENTRICITY": 0.01258019, "INCLINATION": 54.3015, "RA_OF_ASC_NODE": 216.3758, "ARG_OF_PERICENTER": 64.9927, "MEAN_ANOMALY": 115.5079, "EPHEMERIS_TYPE": 0, "CLASSIFICATION_TYPE": "U", "NORAD_CAT_ID": 36585, "ELEMENT_SET_NO": 999, "REV_AT_EPOCH": 11370, "BSTAR": 0, "MEAN_MOTION_DOT": 6.2e-07, "MEAN_MOTION_DDOT": 0}, "tle": {"line1": "1 36585U 10022A   25339.25600413  .00000062  00000+0  00000+0 0  9991", "line2": "2 36585  54.3015 216.3758 0125801  64.9927 115.5079  2.00552724113700"}}, "geometry": {"type": "Point", "coordinates": [150.4294800610876, -51.794847889628954]}}, {"type": "Feature", "properties": {"norad_id": 36828, "name": "BEIDOU-2 IGSO-1 (C06)", "group": "gnss", "lat": 14.802736727887451, "lon": -26.28011673399063, "alt_km": 35656.20570934736, "timestamp": "2025-12-06T09:34:17.156148+00:00", "meta": {"OBJECT_NAME": "BEIDOU-2 IGSO-1 (C06)", "OBJECT_ID": "2010-036A", "EPOCH": "2025-12-05T10:47:07.730592", "MEAN_MOTION": 1.00278097, "ECCENTRICITY": 0.00512452, "INCLINATION": 54.2848, "RA_OF_ASC_NODE": 164.7141, "ARG_OF_PERICENTER": 215.7912, "MEAN_ANOMALY": 323.5719, "EPHEMERIS_TYPE": 0, "CLASSIFICATION_TYPE": "U", "NORAD_CAT_ID": 36828, "ELEMENT_SET_NO": 999, "REV_AT_EPOCH": 5615, "BSTAR": 0, "MEAN_MOTION_DOT": -4.5e-07, "MEAN_MOTION_DDOT": 0}, "tle": {"line1": "1 36828U 10036A   25339.44939503 -.00000045  00000+0  00000+0 0  9994", "line2": "2 36828  54.2848 164.7141 0051245 215.7912 323.5719  1.00278097 56159"}}, "geometry": {"type": "Point", "coordinates": [-26.28011673399063, 14.802736727887451]}}, {"type": "Feature", "properties": {"norad_id": 37210, "name": "BEIDOU-2 G4 (C04)", "group": "gnss", "lat": -2.437314814093594, "lon": 19.227865039753972, "alt_km": 35809.63701422828, "timestamp": "2025-12-06T09:34:17.156161+00:00", "meta": {"OBJECT_NAME": "BEIDOU-2 G4 (C04)", "OBJECT_ID": "2010-057A", "EPOCH": "2025-12-05T21:18:21.305376", "MEAN_MOTION": 1.00271317, "ECCENTRICITY": 0.00109569, "INCLINATION": 3.1668, "RA_OF_ASC_NODE": 69.955, "ARG_OF_PERICENTER": 189.3794, "MEAN_ANOMALY": 295.2635, "EPHEMERIS_TYPE": 0, "CLASSIFICATION_TYPE": "U", "NORAD_CAT_ID": 37210, "ELEMENT_SET_NO": 999, "REV_AT_EPOCH": 5535, "BSTAR": 0, "MEAN_MOTION_DOT": -1.04e-06, "MEAN_MOTION_DDOT": 0}, "tle": {"line1": "1 37210U 10057A   25339.88774659 -.00000104  00000+0  00000+0 0  9996", "line2": "2 37210   3.1668  69.9550 0010956 189.3794 295.2635  1.00271317 55357"}}, "geometry": {"type": "Point", "coordinates": [19.227865039753972, -2.437314814093594]}}, {"type": "Feature", "properties": {"norad_id": 37256, "name": "BEIDOU-2 IGSO-2 (C07)", "group": "gnss", "lat": 35.78294351787354, "lon": -45.24186264228846, "alt_km": 35976.68207193153, "timestamp": "2025-12-06T09:34:17.156173+00:00", "meta": {"OBJECT_NAME": "BEIDOU-2 IGSO-2 (C07)", "OBJECT_ID": "2010-068A", "EPOCH": "2025-12-03T17:22:36.030432", "MEAN_MOTION": 1.0028871, "ECCENTRICITY": 0.00492335, "INCLINATION": 47.9043, "RA_OF_ASC_NODE": 274.2613, "ARG_OF_PERICENTER": 216.1442, "MEAN_ANOMALY": 310.2369, "EPHEMERIS_TYPE": 0, "CLASSIFICATION_TYPE": "U", "NORAD_CAT_ID": 37256, "ELEMENT_SET_NO": 999, "REV_AT_EPOCH": 5483, "BSTAR": 0, "MEAN_MOTION_DOT": -2.25e-06, "MEAN_MOTION_DDOT": 0}, "tle": {"line1": "1 37256U 10068A   25337.72402813 -.00000225  00000+0  00000+0 0  9993", "line2": "2 37256  47.9043 274.2613 0049233 216.1442 310.2369  1.00288710 54839"}}, "geometry": {"type": "Point", "coordinates": [-45.24186264228846, 35.78294351787354]}}, {"type": "Feature", "properties": {"norad_id": 37384, "name": "BEIDOU-2 IGSO-3 (C08)", "group": "gnss", "lat": -58.650675253815805, "lon": -18.08695361424688, "alt_km": 35813.86617325612, "timestamp": "2025-12-06T09:34:17.156185+00:00", "meta": {"OBJECT_NAME": "BEIDOU-2 IGSO-3 (C08)", "OBJECT_ID": "2011-013A", "EPOCH": "2025-12-03T14:52:09.520896", "MEAN_MOTION": 1.00272128, "ECCENTRICITY": 0.00353922, "INCLINATION": 62.1308, "RA_OF_ASC_NODE": 42.005, "ARG_OF_PERICENTER": 186.5359, "MEAN_ANOMALY": 174.9093, "EPHEMERIS_TYPE": 0, "CLASSIFICATION_TYPE": "U", "NORAD_CAT_ID": 37384, "ELEMENT_SET_NO": 999, "REV_AT_EPOCH": 5370, "BSTAR": 0, "MEAN_MOTION_DOT": -1.99e-06, "MEAN_MOTION_DDOT": 0}, "tle": {"line1": "1 37384U 11013A   25337.61955464 -.00000199  00000+0  00000+0 0  9999", "line2": "2 37384  62.1308  42.0050 0035392 186.5359 174.9093  1.00272128 53708"}}, "geometry": {"type": "Point", "coordinates": [-18.08695361424688, -58.650675253815805]}}, {"type": "Feature", "properties": {"norad_id": 37605, "name": "GSAT-8 (GAGAN/PRN 127)", "group": "gnss", "lat": -0.3031192243060925, "lon": -85.884278108498, "alt_km": 35747.99049641084, "timestamp": "2025-12-06T09:34:17.156197+00:00", "meta": {"OBJECT_NAME": "GSAT-8 (GAGAN/PRN 127)", "OBJECT_ID": "2011-022A", "EPOCH": "2025-12-05T20:49:26.905728", "MEAN_MOTION": 1.00272352, "ECCENTRICITY": 0.00091178, "INCLINATION": 1.6309, "RA_OF_ASC_NODE": 84.2663, "ARG_OF_PERICENTER": 178.897, "MEAN_ANOMALY": 179.2114, "EPHEMERIS_TYPE": 0, "CLASSIFICATION_TYPE": "U", "NORAD_CAT_ID": 37605, "ELEMENT_SET_NO": 999, "REV_AT_EPOCH": 5127, "BSTAR": 0, "MEAN_MOTION_DOT": 9.3e-07, "MEAN_MOTION_DDOT": 0}, "tle": {"line1": "1 37605U 11022A   25339.86767252  .00000093  00000+0  00000+0 0  9992", "line2": "2 37605   1.6309  84.2663 0009117 178.8970 179.2114  1.00272352 51271"}}, "geometry": {"type": "Point", "coordinates": [-85.884278108498, -0.3031192243060925]}}, {"type": "Feature", "properties": {"norad_id": 37763, "name": "BEIDOU-2 IGSO-4 (C09)", "group": "gnss", "lat": 28.531178066409566, "lon": -35.40188826846496, "alt_km": 35729.21763468173, "timestamp": "2025-12-06T09:34:17.156210+00:00", "meta": {"OBJECT_NAME": "BEIDOU-2 IGSO-4 (C09)", "OBJECT_ID": "2011-038A", "EPOCH": "2025-12-01T12:32:09.960864", "MEAN_MOTION": 1.00284074, "ECCENTRICITY": 0.01487808, "INCLINATION": 54.5808, "RA_OF_ASC_NODE": 167.4476, "ARG_OF_PERICENTER": 230.2031, "MEAN_ANOMALY": 315.0387, "EPHEMERIS_TYPE": 0, "CLASSIFICATION_TYPE": "U", "NORAD_CAT_ID": 37763, "ELEMENT_SET_NO": 999, "REV_AT_EPOCH": 5266, "BSTAR": 0, "MEAN_MOTION_DOT": 1.01e-06, "MEAN_MOTION_DDOT": 0}, "tle": {"line1": "1 37763U 11038A   25335.52233751  .00000101  00000+0  00000+0 0  9995", "line2": "2 37763  54.5808 167.4476 0148780 230.2031 315.0387  1.00284074 52664"}}, "geometry": {"type": "Point", "coordinates": [-35.40188826846496, 28.531178066409566]}}, {"type": "Feature", "properties": {"norad_id": 37846, "name": "GSAT0101 (GALILEO-PFM)", "group": "gnss", "lat": -25.18909513669986, "lon": -30.769193006577193, "alt_km": 23217.471387381865, "timestamp": "2025-12-06T09:34:17.156224+00:00", "meta": {"OBJECT_NAME": "GSAT0101 (GALILEO-PFM)", "OBJECT_ID": "2011-060A", "EPOCH": "2025-12-04T02:27:04.519296", "MEAN_MOTION": 1.70475494, "ECCENTRICITY": 0.00028233, "INCLINATION": 57.0547, "RA_OF_ASC_NODE": 347.0545, "ARG_OF_PERICENTER": 310.6019, "MEAN_ANOMALY": 49.4066, "EPHEMERIS_TYPE": 0, "CLASSIFICATION_TYPE": "U", "NORAD_CAT_ID": 37846, "ELEMENT_SET_NO": 999, "REV_AT_EPOCH": 8779, "BSTAR": 0, "MEAN_MOTION_DOT": -7e-07, "MEAN_MOTION_DDOT": 0}, "tle": {"line1": "1 37846U 11060A   25338.10213564 -.00000070  00000+0  00000+0 0  9995", "line2": "2 37846  57.0547 347.0545 0002823 310.6019  49.4066  1.70475494 87792"}}, "geometry": {"type": "Point", "coordinates": [-30.769193006577193, -25.18909513669986]}}, {"type": "Feature", "properties": {"norad_id": 37847, "name": "GSAT0102 (GALILEO-FM2)", "group": "gnss", "lat": 12.555938708777317, "lon": -4.700886762618566, "alt_km": 23215.255497625774, "timestamp": "2025-12-06T09:34:17.156236+00:00", "meta": {"OBJECT_NAME": "GSAT0102 (GALILEO-FM2)", "OBJECT_ID": "2011-060B", "EPOCH": "2025-12-05T18:47:51.674208", "MEAN_MOTION": 1.70475731, "ECCENTRICITY": 0.00048401, "INCLINATION": 57.055, "RA_OF_ASC_NODE": 347.0092, "ARG_OF_PERICENTER": 307.2019, "MEAN_ANOMALY": 49.9959, "EPHEMERIS_TYPE": 0, "CLASSIFICATION_TYPE": "U", "NORAD_CAT_ID": 37847, "ELEMENT_SET_NO": 999, "REV_AT_EPOCH": 8782, "BSTAR": 0, "MEAN_MOTION_DOT": -7.8e-07, "MEAN_MOTION_DDOT": 0}, "tle": {"line1": "1 37847U 11060B   25339.78323697 -.00000078  00000+0  00000+0 0  9998", "line2": "2 37847  57.0550 347.0092 0004840 307.2019  49.9959  1.70475731 87821"}}, "geometry": {"type": "Point", "coordinates": [-4.700886762618566, 12.555938708777317]}}]}